{"type": "FeatureCollection", "features": [ {"type": "Feature", "properties": {"norad_id": 66919, "name": "HULIANWANG DIGUI 14E", "group": "last-30-days", "lat": -14.465889251071292, "lon": 113.05521862736136, "alt_km": 873.1206060253999, "timestamp": "2025-12-10T16:57:10.417437+00:00", "meta": {"OBJECT_NAME": "HULIANWANG DIGUI 14E", "OBJECT_ID": "2025-285E", "EPOCH": "2025-12-10T11:55:28.322976", "MEAN_MOTION": 14.057145, "ECCENTRICITY": 0.0007862, "INCLINATION": 50.0056, "RA_OF_ASC_NODE": 126.4189, "ARG_OF_PERICENTER": 283.9415, "MEAN_ANOMALY": 76.0616, "EPHEMERIS_TYPE": 0, "CLASSIFICATION_TYPE": "U", "NORAD_CAT_ID": 66919, "ELEMENT_SET_NO": 999, "REV_AT_EPOCH": 59, "BSTAR": -5.3243e-06, "MEAN_MOTION_DOT": -1.61e-06, "MEAN_MOTION_DDOT": 0}, "tle": {"line1": "1 66919U 25285E   25344.49685559 -.00000161  00000+0 -53243-5 0  9993", "line2": "2 66919  50.0056 126.4189 0007862 283.9415  76.0616 14.05714500   592"}}, "geometry": {"type": "Point", "coordinates": [113.05521862736136, -14.465889251071292]}}, {"type": "Feature", "properties": {"norad_id": 66920, "name": "HULIANWANG DIGUI 14F", "group": "last-30-days", "lat": 1.0286905170468925, "lon": 126.29119453274761, "alt_km": 854.8895331742078, "timestamp": "2025-12-10T16:57:10.417449+00:00", "meta": {"OBJECT_NAME": "HULIANWANG DIGUI 14F", "OBJECT_ID": "2025-285F", "EPOCH": "2025-12-09T20:33:41.277600", "MEAN_MOTION": 14.11847534, "ECCENTRICITY": 0.00305965, "INCLINATION": 50.004, "RA_OF_ASC_NODE": 128.9355, "ARG_OF_PERICENTER": 264.6131, "MEAN_ANOMALY": 95.1286, "EPHEMERIS_TYPE": 0, "CLASSIFICATION_TYPE": "U", "NORAD_CAT_ID": 66920, "ELEMENT_SET_NO": 999, "REV_AT_EPOCH": 50, "BSTAR": 0.00026468579, "MEAN_MOTION_DOT": 3.34e-06, "MEAN_MOTION_DDOT": 0}, "tle": {"line1": "1 66920U 25285F   25343.85672775  .00000334  00000+0  26469-3 0  9998", "line2": "2 66920  50.0040 128.9355 0030596 264.6131  95.1286 14.11847534   507"}}, "geometry": {"type": "Point", "coordinates": [126.29119453274761, 1.0286905170468925]}}, {"type": "Feature", "properties": {"norad_id": 66921, "name": "HULIANWANG DIGUI 14G", "group": "last-30-days", "lat": -12.534614458575673, "lon": 114.80919354764782, "alt_km": 872.832812375148, "timestamp": "2025-12-10T16:57:10.417458+00:00", "meta": {"OBJECT_NAME": "HULIANWANG DIGUI 14G", "OBJECT_ID": "2025-285G", "EPOCH": "2025-12-10T11:54:46.605600", "MEAN_MOTION": 14.05885102, "ECCENTRICITY": 0.0006742, "INCLINATION": 50.0113, "RA_OF_ASC_NODE": 126.4219, "ARG_OF_PERICENTER": 285.8548, "MEAN_ANOMALY": 74.1614, "EPHEMERIS_TYPE": 0, "CLASSIFICATION_TYPE": "U", "NORAD_CAT_ID": 66921, "ELEMENT_SET_NO": 999, "REV_AT_EPOCH": 59, "BSTAR": 0.00025964, "MEAN_MOTION_DOT": 2.75e-06, "MEAN_MOTION_DDOT": 0}, "tle": {"line1": "1 66921U 25285G   25344.49637275  .00000275  00000+0  25964-3 0  9999", "line2": "2 66921  50.0113 126.4219 0006742 285.8548  74.1614 14.05885102   591"}}, "geometry": {"type": "Point", "coordinates": [114.80919354764782, -12.534614458575673]}}, {"type": "Feature", "properties": {"norad_id": 66922, "name": "HULIANWANG DIGUI 14H", "group": "last-30-days", "lat": -11.201187384726717, "lon": 115.98806805619806, "alt_km": 871.788025018267, "timestamp": "2025-12-10T16:57:10.417468+00:00", "meta": {"OBJECT_NAME": "HULIANWANG DIGUI 14H", "OBJECT_ID": "2025-285H", "EPOCH": "2025-12-10T11:54:17.875008", "MEAN_MOTION": 14.05998135, "ECCENTRICITY": 0.0006935, "INCLINATION": 50.0078, "RA_OF_ASC_NODE": 126.4163, "ARG_OF_PERICENTER": 293.8062, "MEAN_ANOMALY": 66.2116, "EPHEMERIS_TYPE": 0, "CLASSIFICATION_TYPE": "U", "NORAD_CAT_ID": 66922, "ELEMENT_SET_NO": 999, "REV_AT_EPOCH": 59, "BSTAR": -3.3227e-06, "MEAN_MOTION_DOT": -1.58e-06, "MEAN_MOTION_DDOT": 0}, "tle": {"line1": "1 66922U 25285H   25344.49604022 -.00000158  00000+0 -33227-5 0  9999", "line2": "2 66922  50.0078 126.4163 0006935 293.8062  66.2116 14.05998135   594"}}, "geometry": {"type": "Point", "coordinates": [115.98806805619806, -11.201187384726717]}}, {"type": "Feature", "properties": {"norad_id": 66923, "name": "HULIANWANG DIGUI 14J", "group": "last-30-days", "lat": -10.499294790963301, "lon": 116.60589146194044, "alt_km": 872.5566913835473, "timestamp": "2025-12-10T16:57:10.417480+00:00", "meta": {"OBJECT_NAME": "HULIANWANG DIGUI 14J", "OBJECT_ID": "2025-285J", "EPOCH": "2025-12-10T11:54:02.846592", "MEAN_MOTION": 14.06055144, "ECCENTRICITY": 0.0005386, "INCLINATION": 50.0076, "RA_OF_ASC_NODE": 126.4161, "ARG_OF_PERICENTER": 288.7008, "MEAN_ANOMALY": 71.3313, "EPHEMERIS_TYPE": 0, "CLASSIFICATION_TYPE": "U", "NORAD_CAT_ID": 66923, "ELEMENT_SET_NO": 999, "REV_AT_EPOCH": 59, "BSTAR": 0.00021059, "MEAN_MOTION_DOT": 1.95e-06, "MEAN_MOTION_DDOT": 0}, "tle": {"line1": "1 66923U 25285J   25344.49586628  .00000195  00000+0  21059-3 0  9998", "line2": "2 66923  50.0076 126.4161 0005386 288.7008  71.3313 14.06055144   594"}}, "geometry": {"type": "Point", "coordinates": [116.60589146194044, -10.499294790963301]}}, {"type": "Feature", "properties": {"norad_id": 66924, "name": "CZ-8A R/B", "group": "last-30-days", "lat": 4.394522149592239, "lon": 128.50845051364814, "alt_km": 794.5590131176923, "timestamp": "2025-12-10T16:57:10.417490+00:00", "meta": {"OBJECT_NAME": "CZ-8A R/B", "OBJECT_ID": "2025-285K", "EPOCH": "2025-12-10T08:32:35.425248", "MEAN_MOTION": 14.30500389, "ECCENTRICITY": 0.0119312, "INCLINATION": 50.006, "RA_OF_ASC_NODE": 126.3017, "ARG_OF_PERICENTER": 98.3367, "MEAN_ANOMALY": 263.1096, "EPHEMERIS_TYPE": 0, "CLASSIFICATION_TYPE": "U", "NORAD_CAT_ID": 66924, "ELEMENT_SET_NO": 999, "REV_AT_EPOCH": 58, "BSTAR": 9.9817e-05, "MEAN_MOTION_DOT": 1.16e-06, "MEAN_MOTION_DDOT": 0}, "tle": {"line1": "1 66924U 25285K   25344.35596557  .00000116  00000+0  99817-4 0  9997", "line2": "2 66924  50.0060 126.3017 0119312  98.3367 263.1096 14.30500389   586"}}, "geometry": {"type": "Point", "coordinates": [128.50845051364814, 4.394522149592239]}}, {"type": "Feature", "properties": {"norad_id": 66953, "name": "HULIANWANG DIGUI 15A", "group": "last-30-days", "lat": -78.30645495854267, "lon": -175.8799741508521, "alt_km": 1006.1563182126638, "timestamp": "2025-12-10T16:57:10.417500+00:00", "meta": {"OBJECT_NAME": "HULIANWANG DIGUI 15A", "OBJECT_ID": "2025-287A", "EPOCH": "2025-12-10T06:55:20.076384", "MEAN_MOTION": 13.69073793, "ECCENTRICITY": 0.00082441, "INCLINATION": 86.4956, "RA_OF_ASC_NODE": 347.0512, "ARG_OF_PERICENTER": 213.3003, "MEAN_ANOMALY": 146.7638, "EPHEMERIS_TYPE": 0, "CLASSIFICATION_TYPE": "U", "NORAD_CAT_ID": 66953, "ELEMENT_SET_NO": 999, "REV_AT_EPOCH": 19, "BSTAR": 9.649594e-06, "MEAN_MOTION_DOT": 2.5e-07, "MEAN_MOTION_DDOT": 0}, "tle": {"line1": "1 66953U 25287A   25344.28842681  .00000025  00000+0  96496-5 0  9995", "line2": "2 66953  86.4956 347.0512 0008244 213.3003 146.7638 13.69073793   194"}}, "geometry": {"type": "Point", "coordinates": [-175.8799741508521, -78.30645495854267]}}, {"type": "Feature", "properties": {"norad_id": 66954, "name": "HULIANWANG DIGUI 15B", "group": "last-30-days", "lat": -78.87568405632625, "lon": -174.95050775145577, "alt_km": 1005.9609705269422, "timestamp": "2025-12-10T16:57:10.417512+00:00", "meta": {"OBJECT_NAME": "HULIANWANG DIGUI 15B", "OBJECT_ID": "2025-287B", "EPOCH": "2025-12-10T06:55:12.116352", "MEAN_MOTION": 13.69168896, "ECCENTRICITY": 0.00081807, "INCLINATION": 86.4972, "RA_OF_ASC_NODE": 347.053, "ARG_OF_PERICENTER": 212.4744, "MEAN_ANOMALY": 147.5913, "EPHEMERIS_TYPE": 0, "CLASSIFICATION_TYPE": "U", "NORAD_CAT_ID": 66954, "ELEMENT_SET_NO": 999, "REV_AT_EPOCH": 19, "BSTAR": 9.675889e-06, "MEAN_MOTION_DOT": 2.5e-07, "MEAN_MOTION_DDOT": 0}, "tle": {"line1": "1 66954U 25287B   25344.28833468  .00000025  00000+0  96759-5 0  9991", "line2": "2 66954  86.4972 347.0530 0008180 212.4744 147.5913 13.69168896   198"}}, "geometry": {"type": "Point", "coordinates": [-174.95050775145577, -78.87568405632625]}}, {"type": "Feature", "properties": {"norad_id": 66955, "name": "HULIANWANG DIGUI 15C", "group": "last-30-days", "lat": -79.62242335139045, "lon": -173.53672060690428, "alt_km": 1006.2323694814204, "timestamp": "2025-12-10T16:57:10.417522+00:00", "meta": {"OBJECT_NAME": "HULIANWANG DIGUI 15C", "OBJECT_ID": "2025-287C", "EPOCH": "2025-12-09T09:52:18.926688", "MEAN_MOTION": 13.69296672, "ECCENTRICITY": 0.00076324, "INCLINATION": 86.4914, "RA_OF_ASC_NODE": 347.3632, "ARG_OF_PERICENTER": 209.8722, "MEAN_ANOMALY": 150.2003, "EPHEMERIS_TYPE": 0, "CLASSIFICATION_TYPE": "U", "NORAD_CAT_ID": 66955, "ELEMENT_SET_NO": 999, "REV_AT_EPOCH": 7, "BSTAR": 3.470494e-06, "MEAN_MOTION_DOT": 2e-07, "MEAN_MOTION_DDOT": 0}, "tle": {"line1": "1 66955U 25287C   25343.41133017  .00000020  00000+0  34705-5 0  9997", "line2": "2 66955  86.4914 347.3632 0007632 209.8722 150.2003 13.69296672    70"}}, "geometry": {"type": "Point", "coordinates": [-173.53672060690428, -79.62242335139045]}}, {"type": "Feature", "properties": {"norad_id": 66956, "name": "HULIANWANG DIGUI 15D", "group": "last-30-days", "lat": -80.24176411984264, "lon": -172.23560114953798, "alt_km": 1006.7319218080183, "timestamp": "2025-12-10T16:57:10.417533+00:00", "meta": {"OBJECT_NAME": "HULIANWANG DIGUI 15D", "OBJECT_ID": "2025-287D", "EPOCH": "2025-12-10T06:54:53.091072", "MEAN_MOTION": 13.69398776, "ECCENTRICITY": 0.00070637, "INCLINATION": 86.4971, "RA_OF_ASC_NODE": 347.053, "ARG_OF_PERICENTER": 199.9716, "MEAN_ANOMALY": 160.1168, "EPHEMERIS_TYPE": 0, "CLASSIFICATION_TYPE": "U", "NORAD_CAT_ID": 66956, "ELEMENT_SET_NO": 999, "REV_AT_EPOCH": 19, "BSTAR": 9.668117e-06, "MEAN_MOTION_DOT": 2.5e-07, "MEAN_MOTION_DDOT": 0}, "tle": {"line1": "1 66956U 25287D   25344.28811448  .00000025  00000+0  96681-5 0  9991", "line2": "2 66956  86.4971 347.0530 0007063 199.9716 160.1168 13.69398776   191"}}, "geometry": {"type": "Point", "coordinates": [-172.23560114953798, -80.24176411984264]}}]}